{"type": "FeatureCollection", "features": [ {"type": "Feature", "properties": {"norad_id": 57401, "name": "TIANMU-1 09", "group": "weather", "lat": 39.493613525932325, "lon": 37.416270082261, "alt_km": 474.1426490605445, "timestamp": "2025-12-20T11:30:28.013855+00:00", "meta": {"OBJECT_NAME": "TIANMU-1 09", "OBJECT_ID": "2023-101C", "EPOCH": "2025-12-20T03:28:35.429664", "MEAN_MOTION": 15.28185672, "ECCENTRICITY": 0.0006525, "INCLINATION": 97.2812, "RA_OF_ASC_NODE": 43.138, "ARG_OF_PERICENTER": 63.7591, "MEAN_ANOMALY": 296.4319, "EPHEMERIS_TYPE": 0, "CLASSIFICATION_TYPE": "U", "NORAD_CAT_ID": 57401, "ELEMENT_SET_NO": 999, "REV_AT_EPOCH": 13428, "BSTAR": 0.00019457, "MEAN_MOTION_DOT": 5.274e-05, "MEAN_MOTION_DDOT": 0}, "tle": {"line1": "1 57401U 23101C   25354.14485451  .00005274  00000+0  19457-3 0  9991", "line2": "2 57401  97.2812  43.1380 0006525  63.7591 296.4319 15.28185672134283"}}, "geometry": {"type": "Point", "coordinates": [37.416270082261, 39.493613525932325]}}, {"type": "Feature", "properties": {"norad_id": 57402, "name": "TIANMU-1 10", "group": "weather", "lat": -31.556288068860617, "lon": -140.1858770724887, "alt_km": 492.33779037356817, "timestamp": "2025-12-20T11:30:28.013865+00:00", "meta": {"OBJECT_NAME": "TIANMU-1 10", "OBJECT_ID": "2023-101D", "EPOCH": "2025-12-20T04:17:54.842208", "MEAN_MOTION": 15.28177423, "ECCENTRICITY": 0.0008252, "INCLINATION": 97.2893, "RA_OF_ASC_NODE": 44.0291, "ARG_OF_PERICENTER": 61.9605, "MEAN_ANOMALY": 298.2469, "EPHEMERIS_TYPE": 0, "CLASSIFICATION_TYPE": "U", "NORAD_CAT_ID": 57402, "ELEMENT_SET_NO": 999, "REV_AT_EPOCH": 13428, "BSTAR": 0.00018964, "MEAN_MOTION_DOT": 5.139e-05, "MEAN_MOTION_DDOT": 0}, "tle": {"line1": "1 57402U 23101D   25354.17910697  .00005139  00000+0  18964-3 0  9992", "line2": "2 57402  97.2893  44.0291 0008252  61.9605 298.2469 15.28177423134280"}}, "geometry": {"type": "Point", "coordinates": [-140.1858770724887, -31.556288068860617]}}, {"type": "Feature", "properties": {"norad_id": 57490, "name": "FENGYUN 3F", "group": "weather", "lat": -19.23819534315712, "lon": 65.71347147450594, "alt_km": 831.1156419641902, "timestamp": "2025-12-20T11:30:28.013875+00:00", "meta": {"OBJECT_NAME": "FENGYUN 3F", "OBJECT_ID": "2023-111A", "EPOCH": "2025-12-20T04:50:03.856992", "MEAN_MOTION": 14.19895365, "ECCENTRICITY": 7.47e-05, "INCLINATION": 98.7074, "RA_OF_ASC_NODE": 62.3742, "ARG_OF_PERICENTER": 113.5104, "MEAN_ANOMALY": 246.6151, "EPHEMERIS_TYPE": 0, "CLASSIFICATION_TYPE": "U", "NORAD_CAT_ID": 57490, "ELEMENT_SET_NO": 999, "REV_AT_EPOCH": 12346, "BSTAR": 4.4651e-05, "MEAN_MOTION_DOT": 5.1e-07, "MEAN_MOTION_DDOT": 0}, "tle": {"line1": "1 57490U 23111A   25354.20143353  .00000051  00000+0  44651-4 0  9992", "line2": "2 57490  98.7074  62.3742 0000747 113.5104 246.6151 14.19895365123461"}}, "geometry": {"type": "Point", "coordinates": [65.71347147450594, -19.23819534315712]}}, {"type": "Feature", "properties": {"norad_id": 58584, "name": "ARKTIKA-M 2", "group": "weather", "lat": 61.11014132726476, "lon": -119.67373796606287, "alt_km": 37153.64589129987, "timestamp": "2025-12-20T11:30:28.013887+00:00", "meta": {"OBJECT_NAME": "ARKTIKA-M 2", "OBJECT_ID": "2023-198A", "EPOCH": "2025-12-19T19:22:17.366880", "MEAN_MOTION": 2.00602866, "ECCENTRICITY": 0.6865408, "INCLINATION": 63.225, "RA_OF_ASC_NODE": 174.1215, "ARG_OF_PERICENTER": 268.0761, "MEAN_ANOMALY": 18.8406, "EPHEMERIS_TYPE": 0, "CLASSIFICATION_TYPE": "U", "NORAD_CAT_ID": 58584, "ELEMENT_SET_NO": 999, "REV_AT_EPOCH": 1472, "BSTAR": 0, "MEAN_MOTION_DOT": 2e-06, "MEAN_MOTION_DDOT": 0}, "tle": {"line1": "1 58584U 23198A   25353.80714545  .00000200  00000+0  00000+0 0  9995", "line2": "2 58584  63.2250 174.1215 6865408 268.0761  18.8406  2.00602866 14729"}}, "geometry": {"type": "Point", "coordinates": [-119.67373796606287, 61.11014132726476]}}, {"type": "Feature", "properties": {"norad_id": 58645, "name": "TIANMU-1 11", "group": "weather", "lat": -65.11741540374781, "lon": 30.14773390594099, "alt_km": 493.99047781040827, "timestamp": "2025-12-20T11:30:28.013898+00:00", "meta": {"OBJECT_NAME": "TIANMU-1 11", "OBJECT_ID": "2023-205A", "EPOCH": "2025-12-20T03:55:18.372576", "MEAN_MOTION": 15.24683348, "ECCENTRICITY": 0.0007557, "INCLINATION": 97.3596, "RA_OF_ASC_NODE": 13.6564, "ARG_OF_PERICENTER": 279.006, "MEAN_ANOMALY": 81.0323, "EPHEMERIS_TYPE": 0, "CLASSIFICATION_TYPE": "U", "NORAD_CAT_ID": 58645, "ELEMENT_SET_NO": 999, "REV_AT_EPOCH": 11022, "BSTAR": 0.00017269, "MEAN_MOTION_DOT": 4.2e-05, "MEAN_MOTION_DDOT": 0}, "tle": {"line1": "1 58645U 23205A   25354.16340709  .00004200  00000+0  17269-3 0  9992", "line2": "2 58645  97.3596  13.6564 0007557 279.0060  81.0323 15.24683348110229"}}, "geometry": {"type": "Point", "coordinates": [30.14773390594099, -65.11741540374781]}}, {"type": "Feature", "properties": {"norad_id": 58646, "name": "TIANMU-1 12", "group": "weather", "lat": 36.76548177060909, "lon": -160.68952431363738, "alt_km": 491.1399013984228, "timestamp": "2025-12-20T11:30:28.013908+00:00", "meta": {"OBJECT_NAME": "TIANMU-1 12", "OBJECT_ID": "2023-205B", "EPOCH": "2025-12-20T04:34:55.530336", "MEAN_MOTION": 15.24568558, "ECCENTRICITY": 0.0005809, "INCLINATION": 97.3582, "RA_OF_ASC_NODE": 13.4864, "ARG_OF_PERICENTER": 257.3428, "MEAN_ANOMALY": 102.7161, "EPHEMERIS_TYPE": 0, "CLASSIFICATION_TYPE": "U", "NORAD_CAT_ID": 58646, "ELEMENT_SET_NO": 999, "REV_AT_EPOCH": 11021, "BSTAR": 0.00018242, "MEAN_MOTION_DOT": 4.424e-05, "MEAN_MOTION_DDOT": 0}, "tle": {"line1": "1 58646U 23205B   25354.19092049  .00004424  00000+0  18242-3 0  9997", "line2": "2 58646  97.3582  13.4864 0005809 257.3428 102.7161 15.24568558110216"}}, "geometry": {"type": "Point", "coordinates": [-160.68952431363738, 36.76548177060909]}}, {"type": "Feature", "properties": {"norad_id": 58647, "name": "TIANMU-1 13", "group": "weather", "lat": -39.59316681860727, "lon": 20.111986929381303, "alt_km": 498.30611043917634, "timestamp": "2025-12-20T11:30:28.013918+00:00", "meta": {"OBJECT_NAME": "TIANMU-1 13", "OBJECT_ID": "2023-205C", "EPOCH": "2025-12-20T05:22:55.867872", "MEAN_MOTION": 15.24612057, "ECCENTRICITY": 0.0006266, "INCLINATION": 97.3611, "RA_OF_ASC_NODE": 13.7233, "ARG_OF_PERICENTER": 233.7062, "MEAN_ANOMALY": 126.3597, "EPHEMERIS_TYPE": 0, "CLASSIFICATION_TYPE": "U", "NORAD_CAT_ID": 58647, "ELEMENT_SET_NO": 999, "REV_AT_EPOCH": 11021, "BSTAR": 0.00018361, "MEAN_MOTION_DOT": 4.459e-05, "MEAN_MOTION_DDOT": 0}, "tle": {"line1": "1 58647U 23205C   25354.22425773  .00004459  00000+0  18361-3 0  9996", "line2": "2 58647  97.3611  13.7233 0006266 233.7062 126.3597 15.24612057110212"}}, "geometry": {"type": "Point", "coordinates": [20.111986929381303, -39.59316681860727]}}, {"type": "Feature", "properties": {"norad_id": 58648, "name": "TIANMU-1 14", "group": "weather", "lat": 49.98792150739877, "lon": 4.465154921604333, "alt_km": 492.2495411299378, "timestamp": "2025-12-20T11:30:28.013928+00:00", "meta": {"OBJECT_NAME": "TIANMU-1 14", "OBJECT_ID": "2023-205D", "EPOCH": "2025-12-20T04:59:08.660832", "MEAN_MOTION": 15.24595199, "ECCENTRICITY": 0.0007006, "INCLINATION": 97.3543, "RA_OF_ASC_NODE": 13.0489, "ARG_OF_PERICENTER": 239.8181, "MEAN_ANOMALY": 120.2363, "EPHEMERIS_TYPE": 0, "CLASSIFICATION_TYPE": "U", "NORAD_CAT_ID": 58648, "ELEMENT_SET_NO": 999, "REV_AT_EPOCH": 11021, "BSTAR": 0.00018546, "MEAN_MOTION_DOT": 4.503e-05, "MEAN_MOTION_DDOT": 0}, "tle": {"line1": "1 58648U 23205D   25354.20773913  .00004503  00000+0  18546-3 0  9992", "line2": "2 58648  97.3543  13.0489 0007006 239.8181 120.2363 15.24595199110216"}}, "geometry": {"type": "Point", "coordinates": [4.465154921604333, 49.98792150739877]}}, {"type": "Feature", "properties": {"norad_id": 58660, "name": "TIANMU-1 19", "group": "weather", "lat": 38.68511689497753, "lon": 99.49605076107092, "alt_km": 482.07703476201095, "timestamp": "2025-12-20T11:30:28.013938+00:00", "meta": {"OBJECT_NAME": "TIANMU-1 19", "OBJECT_ID": "2023-208A", "EPOCH": "2025-12-20T03:28:43.026816", "MEAN_MOTION": 15.27976013, "ECCENTRICITY": 0.0004451, "INCLINATION": 97.4396, "RA_OF_ASC_NODE": 105.1681, "ARG_OF_PERICENTER": 220.376, "MEAN_ANOMALY": 139.7149, "EPHEMERIS_TYPE": 0, "CLASSIFICATION_TYPE": "U", "NORAD_CAT_ID": 58660, "ELEMENT_SET_NO": 999, "REV_AT_EPOCH": 10995, "BSTAR": 0.00024561, "MEAN_MOTION_DOT": 6.631e-05, "MEAN_MOTION_DDOT": 0}, "tle": {"line1": "1 58660U 23208A   25354.14494244  .00006631  00000+0  24561-3 0  9997", "line2": "2 58660  97.4396 105.1681 0004451 220.3760 139.7149 15.27976013109950"}}, "geometry": {"type": "Point", "coordinates": [99.49605076107092, 38.68511689497753]}}, {"type": "Feature", "properties": {"norad_id": 58661, "name": "TIANMU-1 20", "group": "weather", "lat": 33.1428547646082, "lon": -69.15236790071988, "alt_km": 476.1062075712007, "timestamp": "2025-12-20T11:30:28.013948+00:00", "meta": {"OBJECT_NAME": "TIANMU-1 20", "OBJECT_ID": "2023-208B", "EPOCH": "2025-12-20T04:35:12.908832", "MEAN_MOTION": 15.2916729, "ECCENTRICITY": 0.0006552, "INCLINATION": 97.4333, "RA_OF_ASC_NODE": 105.6691, "ARG_OF_PERICENTER": 234.4884, "MEAN_ANOMALY": 125.5745, "EPHEMERIS_TYPE": 0, "CLASSIFICATION_TYPE": "U", "NORAD_CAT_ID": 58661, "ELEMENT_SET_NO": 999, "REV_AT_EPOCH": 11003, "BSTAR": 0.00024269, "MEAN_MOTION_DOT": 6.797e-05, "MEAN_MOTION_DDOT": 0}, "tle": {"line1": "1 58661U 23208B   25354.19112163  .00006797  00000+0  24269-3 0  9998", "line2": "2 58661  97.4333 105.6691 0006552 234.4884 125.5745 15.29167290110032"}}, "geometry": {"type": "Point", "coordinates": [-69.15236790071988, 33.1428547646082]}}]}